COSMOS 2588             
1 64095U 25109A   26068.81179522  .00009169  00000+0  32611-3 0  9998
2 64095  72.9704  73.5401 0005019 308.6780  51.3966 15.29122656 44425
STARLINK-35207          
1 65500U 25198J   26068.85569785  .00029328  00000+0  99927-3 0  9998
2 65500  53.1567 270.3556 0000958 100.6259 259.4849 15.30172373 28641
